[{"OBJECT_NAME":"ONEWEB-0121","OBJECT_ID":"2020-100K","EPOCH":"2026-03-31T05:25:56.757504","MEAN_MOTION":13.12443272,"ECCENTRICITY":0.0001903,"INCLINATION":87.9018,"RA_OF_ASC_NODE":6.1343,"ARG_OF_PERICENTER":83.8862,"MEAN_ANOMALY":276.2483,"EPHEMERIS_TYPE":0,"CLASSIFICATION_TYPE":"U","NORAD_CAT_ID":47267,"ELEMENT_SET_NO":999,"REV_AT_EPOCH":25441,"BSTAR":0.0008934800000000001,"MEAN_MOTION_DOT":3.34e-06,"MEAN_MOTION_DDOT":0.0},{"OBJECT_NAME":"ONEWEB-0122","OBJECT_ID":"2020-100L","EPOCH":"2026-03-31T05:17:25.033632","MEAN_MOTION":13.12443463,"ECCENTRICITY":0.0001942,"INCLINATION":87.9023,"RA_OF_ASC_NODE":6.1381,"ARG_OF_PERICENTER":77.1664,"MEAN_ANOMALY":282.9681,"EPHEMERIS_TYPE":0,"CLASSIFICATION_TYPE":"U","NORAD_CAT_ID":47268,"ELEMENT_SET_NO":999,"REV_AT_EPOCH":25432,"BSTAR":0.0011256,"MEAN_MOTION_DOT":4.18e-06,"MEAN_MOTION_DDOT":0.0},{"OBJECT_NAME":"ONEWEB-0123","OBJECT_ID":"2020-100M","EPOCH":"2026-03-31T05:11:19.198752","MEAN_MOTION":13.12419845,"ECCENTRICITY":0.0001827,"INCLINATION":87.9009,"RA_OF_ASC_NODE":6.1559,"ARG_OF_PERICENTER":75.413,"MEAN_ANOMALY":284.7201,"EPHEMERIS_TYPE":0,"CLASSIFICATION_TYPE":"U","NORAD_CAT_ID":47269,"ELEMENT_SET_NO":999,"REV_AT_EPOCH":25446,"BSTAR":0.015364000000000001,"MEAN_MOTION_DOT":5.541e-05,"MEAN_MOTION_DDOT":0.0},{"OBJECT_NAME":"ONEWEB-0124","OBJECT_ID":"2020-100N","EPOCH":"2026-03-31T04:56:40.471008","MEAN_MOTION":13.12445163,"ECCENTRICITY":0.0001731,"INCLINATION":87.9005,"RA_OF_ASC_NODE":6.162,"ARG_OF_PERICENTER":82.644,"MEAN_ANOMALY":277.4886,"EPHEMERIS_TYPE":0,"CLASSIFICATION_TYPE":"U","NORAD_CAT_ID":47270,"ELEMENT_SET_NO":999,"REV_AT_EPOCH":25434,"BSTAR":0.0010140000000000001,"MEAN_MOTION_DOT":3.78e-06,"MEAN_MOTION_DDOT":0.0},{"OBJECT_NAME":"ONEWEB-0125","OBJECT_ID":"2020-100P","EPOCH":"2026-03-31T04:24:57.349440","MEAN_MOTION":13.12443645,"ECCENTRICITY":0.0001509,"INCLINATION":87.9021,"RA_OF_ASC_NODE":6.1404,"ARG_OF_PERICENTER":84.6545,"MEAN_ANOMALY":275.4756,"EPHEMERIS_TYPE":0,"CLASSIFICATION_TYPE":"U","NORAD_CAT_ID":47271,"ELEMENT_SET_NO":999,"REV_AT_EPOCH":25440,"BSTAR":-0.00067049,"MEAN_MOTION_DOT":-2.29e-06,"MEAN_MOTION_DDOT":0.0},{"OBJECT_NAME":"ONEWEB-0126","OBJECT_ID":"2020-100Q","EPOCH":"2026-03-31T04:54:26.120736","MEAN_MOTION":13.12445349,"ECCENTRICITY":0.0001819,"INCLINATION":87.9013,"RA_OF_ASC_NODE":6.1574,"ARG_OF_PERICENTER":73.9834,"MEAN_ANOMALY":286.1495,"EPHEMERIS_TYPE":0,"CLASSIFICATION_TYPE":"U","NORAD_CAT_ID":47272,"ELEMENT_SET_NO":999,"REV_AT_EPOCH":25447,"BSTAR":0.0011083,"MEAN_MOTION_DOT":4.11e-06,"MEAN_MOTION_DDOT":0.0},{"OBJECT_NAME":"ONEWEB-0127","OBJECT_ID":"2020-100R","EPOCH":"2026-03-31T04:05:27.045024","MEAN_MOTION":13.1244331,"ECCENTRICITY":0.0001902,"INCLINATION":87.9008,"RA_OF_ASC_NODE":6.1668,"ARG_OF_PERICENTER":74.999,"MEAN_ANOMALY":285.1349,"EPHEMERIS_TYPE":0,"CLASSIFICATION_TYPE":"U","NORAD_CAT_ID":47273,"ELEMENT_SET_NO":999,"REV_AT_EPOCH":25449,"BSTAR":-0.00086043,"MEAN_MOTION_DOT":-2.97e-06,"MEAN_MOTION_DDOT":0.0},{"OBJECT_NAME":"ONEWEB-0128","OBJECT_ID":"2020-100S","EPOCH":"2026-03-31T04:37:08.601024","MEAN_MOTION":13.12446628,"ECCENTRICITY":0.0002062,"INCLINATION":87.9006,"RA_OF_ASC_NODE":6.1763,"ARG_OF_PERICENTER":85.721,"MEAN_ANOMALY":274.4154,"EPHEMERIS_TYPE":0,"CLASSIFICATION_TYPE":"U","NORAD_CAT_ID":47274,"ELEMENT_SET_NO":999,"REV_AT_EPOCH":25451,"BSTAR":-0.00013472999999999998,"MEAN_MOTION_DOT":-3.6e-07,"MEAN_MOTION_DDOT":0.0},{"OBJECT_NAME":"ONEWEB-0129","OBJECT_ID":"2020-100T","EPOCH":"2026-03-31T04:07:52.748256","MEAN_MOTION":13.12444256,"ECCENTRICITY":0.0002475,"INCLINATION":87.9016,"RA_OF_ASC_NODE":6.1459,"ARG_OF_PERICENTER":53.2844,"MEAN_ANOMALY":306.8511,"EPHEMERIS_TYPE":0,"CLASSIFICATION_TYPE":"U","NORAD_CAT_ID":47275,"ELEMENT_SET_NO":999,"REV_AT_EPOCH":25444,"BSTAR":-0.0010536,"MEAN_MOTION_DOT":-3.66e-06,"MEAN_MOTION_DDOT":0.0},{"OBJECT_NAME":"ONEWEB-0130","OBJECT_ID":"2020-100U","EPOCH":"2026-03-31T04:46:54.861312","MEAN_MOTION":13.12445538,"ECCENTRICITY":0.0001887,"INCLINATION":87.902,"RA_OF_ASC_NODE":6.1351,"ARG_OF_PERICENTER":77.0806,"MEAN_ANOMALY":283.0533,"EPHEMERIS_TYPE":0,"CLASSIFICATION_TYPE":"U","NORAD_CAT_ID":47276,"ELEMENT_SET_NO":999,"REV_AT_EPOCH":25441,"BSTAR":0.0005679600000000001,"MEAN_MOTION_DOT":2.17e-06,"MEAN_MOTION_DDOT":0.0},{"OBJECT_NAME":"ONEWEB-0131","OBJECT_ID":"2020-100V","EPOCH":"2026-03-31T04:42:01.898784","MEAN_MOTION":13.12445409,"ECCENTRICITY":0.0001839,"INCLINATION":87.9008,"RA_OF_ASC_NODE":6.1625,"ARG_OF_PERICENTER":78.4897,"MEAN_ANOMALY":281.6438,"EPHEMERIS_TYPE":0,"CLASSIFICATION_TYPE":"U","NORAD_CAT_ID":47277,"ELEMENT_SET_NO":999,"REV_AT_EPOCH":25445,"BSTAR":0.00030536,"MEAN_MOTION_DOT":1.23e-06,"MEAN_MOTION_DDOT":0.0},{"OBJECT_NAME":"ONEWEB-0132","OBJECT_ID":"2020-100W","EPOCH":"2026-03-31T05:23:30.991200","MEAN_MOTION":13.1244324,"ECCENTRICITY":0.0001829,"INCLINATION":87.901,"RA_OF_ASC_NODE":6.1567,"ARG_OF_PERICENTER":80.6874,"MEAN_ANOMALY":279.4462,"EPHEMERIS_TYPE":0,"CLASSIFICATION_TYPE":"U","NORAD_CAT_ID":47278,"ELEMENT_SET_NO":999,"REV_AT_EPOCH":25435,"BSTAR":0.00090553,"MEAN_MOTION_DOT":3.38e-06,"MEAN_MOTION_DDOT":0.0},{"OBJECT_NAME":"ONEWEB-0133","OBJECT_ID":"2020-100X","EPOCH":"2026-03-31T03:57:55.627488","MEAN_MOTION":13.1244321,"ECCENTRICITY":0.0001898,"INCLINATION":87.9021,"RA_OF_ASC_NODE":6.1357,"ARG_OF_PERICENTER":82.0728,"MEAN_ANOMALY":278.0616,"EPHEMERIS_TYPE":0,"CLASSIFICATION_TYPE":"U","NORAD_CAT_ID":47279,"ELEMENT_SET_NO":999,"REV_AT_EPOCH":25450,"BSTAR":-0.0007230299999999999,"MEAN_MOTION_DOT":-2.47e-06,"MEAN_MOTION_DDOT":0.0},{"OBJECT_NAME":"ONEWEB-0134","OBJECT_ID":"2020-100Y","EPOCH":"2026-03-31T05:03:59.424480","MEAN_MOTION":13.12445293,"ECCENTRICITY":0.0002061,"INCLINATION":87.9021,"RA_OF_ASC_NODE":6.1235,"ARG_OF_PERICENTER":77.9411,"MEAN_ANOMALY":282.1948,"EPHEMERIS_TYPE":0,"CLASSIFICATION_TYPE":"U","NORAD_CAT_ID":47280,"ELEMENT_SET_NO":999,"REV_AT_EPOCH":25448,"BSTAR":0.0013938000000000002,"MEAN_MOTION_DOT":5.14e-06,"MEAN_MOTION_DDOT":0.0},{"OBJECT_NAME":"ONEWEB-0135","OBJECT_ID":"2020-100Z","EPOCH":"2026-03-31T04:22:30.255168","MEAN_MOTION":13.12443045,"ECCENTRICITY":0.0002136,"INCLINATION":87.901,"RA_OF_ASC_NODE":6.162,"ARG_OF_PERICENTER":80.4315,"MEAN_ANOMALY":279.7055,"EPHEMERIS_TYPE":0,"CLASSIFICATION_TYPE":"U","NORAD_CAT_ID":47281,"ELEMENT_SET_NO":999,"REV_AT_EPOCH":25450,"BSTAR":-0.0014297000000000001,"MEAN_MOTION_DOT":-5.02e-06,"MEAN_MOTION_DDOT":0.0},{"OBJECT_NAME":"ONEWEB-0136","OBJECT_ID":"2020-100AA","EPOCH":"2026-03-31T04:49:21.607392","MEAN_MOTION":13.12443637,"ECCENTRICITY":0.0002119,"INCLINATION":87.9017,"RA_OF_ASC_NODE":6.1334,"ARG_OF_PERICENTER":76.7257,"MEAN_ANOMALY":283.4108,"EPHEMERIS_TYPE":0,"CLASSIFICATION_TYPE":"U","NORAD_CAT_ID":47282,"ELEMENT_SET_NO":999,"REV_AT_EPOCH":25443,"BSTAR":0.00081422,"MEAN_MOTION_DOT":3.06e-06,"MEAN_MOTION_DDOT":0.0}]