ONEWEB-0121             
1 47267U 20100K   26090.22635136  .00000334  00000+0  89348-3 0  9998
2 47267  87.9018   6.1343 0001903  83.8862 276.2483 13.12443272254413
ONEWEB-0122             
1 47268U 20100L   26090.22042863  .00000418  00000+0  11256-2 0  9993
2 47268  87.9023   6.1381 0001942  77.1664 282.9681 13.12443463254327
ONEWEB-0123             
1 47269U 20100M   26090.21619443  .00005541  00000+0  15364-1 0  9992
2 47269  87.9009   6.1559 0001827  75.4130 284.7201 13.12419845254460
ONEWEB-0124             
1 47270U 20100N   26090.20602397  .00000378  00000+0  10140-2 0  9994
2 47270  87.9005   6.1620 0001731  82.6440 277.4886 13.12445163254342
ONEWEB-0125             
1 47271U 20100P   26090.18399710 -.00000229  00000+0 -67049-3 0  9992
2 47271  87.9021   6.1404 0001509  84.6545 275.4756 13.12443645254406
ONEWEB-0126             
1 47272U 20100Q   26090.20446899  .00000411  00000+0  11083-2 0  9994
2 47272  87.9013   6.1574 0001819  73.9834 286.1495 13.12445349254471
ONEWEB-0127             
1 47273U 20100R   26090.17045191 -.00000297  00000+0 -86043-3 0  9994
2 47273  87.9008   6.1668 0001902  74.9990 285.1349 13.12443310254492
ONEWEB-0128             
1 47274U 20100S   26090.19246066 -.00000036  00000+0 -13473-3 0  9999
2 47274  87.9006   6.1763 0002062  85.7210 274.4154 13.12446628254513
ONEWEB-0129             
1 47275U 20100T   26090.17213829 -.00000366  00000+0 -10536-2 0  9991
2 47275  87.9016   6.1459 0002475  53.2844 306.8511 13.12444256254442
ONEWEB-0130             
1 47276U 20100U   26090.19924608  .00000217  00000+0  56796-3 0  9990
2 47276  87.9020   6.1351 0001887  77.0806 283.0533 13.12445538254418
ONEWEB-0131             
1 47277U 20100V   26090.19585531  .00000123  00000+0  30536-3 0  9999
2 47277  87.9008   6.1625 0001839  78.4897 281.6438 13.12445409254450
ONEWEB-0132             
1 47278U 20100W   26090.22466425  .00000338  00000+0  90553-3 0  9997
2 47278  87.9010   6.1567 0001829  80.6874 279.4462 13.12443240254350
ONEWEB-0133             
1 47279U 20100X   26090.16522717 -.00000247  00000+0 -72303-3 0  9992
2 47279  87.9021   6.1357 0001898  82.0728 278.0616 13.12443210254500
ONEWEB-0134             
1 47280U 20100Y   26090.21110445  .00000514  00000+0  13938-2 0  9994
2 47280  87.9021   6.1235 0002061  77.9411 282.1948 13.12445293254486
ONEWEB-0135             
1 47281U 20100Z   26090.18229462 -.00000502  00000+0 -14297-2 0  9999
2 47281  87.9010   6.1620 0002136  80.4315 279.7055 13.12443045254505
ONEWEB-0136             
1 47282U 20100AA  26090.20094453  .00000306  00000+0  81422-3 0  9998
2 47282  87.9017   6.1334 0002119  76.7257 283.4108 13.12443637254439
